OBJECT B                
1 51825U 22019B   25094.81734988  .00039275  00000+0  10788-2 0  9994
2 51825  97.3893 170.9247 0009599 282.3871  77.6299 15.37080878171786
